{
  "norad_id": 67322,
  "name": "STARLINK-36434",
  "history": [
    {
      "epoch": "2026-03-28T15:21:48.566880Z",
      "apogee_km": 483.5445128299689,
      "perigee_km": 482.3493120124258,
      "latitude_deg": 8.569441156369983e-06,
      "longitude_deg": 162.03285516716576,
      "height_km": 482.7484480712868,
      "semi_major_axis_km": 6861.083912421197,
      "eccentricity": 8.71e-05,
      "inclination_deg": 42.9988,
      "raan_deg": 218.5429,
      "arg_perigee_deg": 267.5608,
      "mean_anomaly_deg": 92.5144,
      "mean_motion_rev_day": 15.27614126
    },
    {
      "epoch": "2026-03-29T08:37:31.824768Z",
      "apogee_km": 485.22700999483095,
      "perigee_km": 480.6689168102439,
      "latitude_deg": 5.506167840004714e-06,
      "longitude_deg": -101.66901506708298,
      "height_km": 482.0904038851162,
      "semi_major_axis_km": 6861.084963402537,
      "eccentricity": 0.00033217,
      "inclination_deg": 42.998,
      "raan_deg": 214.4802,
      "arg_perigee_deg": 286.1883,
      "mean_anomaly_deg": 73.8603,
      "mean_motion_rev_day": 15.27613775
    },
    {
      "epoch": "2026-03-30T14:26:29.968800Z",
      "apogee_km": 483.95790878542266,
      "perigee_km": 482.04241651235407,
      "latitude_deg": 2.8369430484665735e-06,
      "longitude_deg": 162.8478104915252,
      "height_km": 482.8388887698805,
      "semi_major_axis_km": 6861.137162648888,
      "eccentricity": 0.00013959,
      "inclination_deg": 42.9978,
      "raan_deg": 207.4638,
      "arg_perigee_deg": 266.2712,
      "mean_anomaly_deg": 93.798,
      "mean_motion_rev_day": 15.27596342
    },
    {
      "epoch": "2026-03-30T16:00:39.329568Z",
      "apogee_km": 484.1347788700441,
      "perigee_km": 481.8405560037463,
      "latitude_deg": 6.062070169207831e-05,
      "longitude_deg": 138.87642149058345,
      "height_km": 482.7245436665247,
      "semi_major_axis_km": 6861.124667436895,
      "eccentricity": 0.00016719,
      "inclination_deg": 42.9994,
      "raan_deg": 207.0958,
      "arg_perigee_deg": 271.9971,
      "mean_anomaly_deg": 88.069,
      "mean_motion_rev_day": 15.27600515
    },
    {
      "epoch": "2026-03-31T13:58:50.700864Z",
      "apogee_km": 484.1916876254181,
      "perigee_km": 481.8218485679172,
      "latitude_deg": -1.3686153114905716e-05,
      "longitude_deg": 163.2574943810594,
      "height_km": 482.9277107489506,
      "semi_major_axis_km": 6861.143768096667,
      "eccentricity": 0.0001727,
      "inclination_deg": 43.0003,
      "raan_deg": 201.9266,
      "arg_perigee_deg": 263.021,
      "mean_anomaly_deg": 97.0445,
      "mean_motion_rev_day": 15.27594136
    },
    {
      "epoch": "2026-04-01T13:31:11.055360Z",
      "apogee_km": 483.7380821783663,
      "perigee_km": 482.6512472426757,
      "latitude_deg": 3.941193909976482e-06,
      "longitude_deg": 163.66709219982673,
      "height_km": 483.194811331227,
      "semi_major_axis_km": 6861.33166471052,
      "eccentricity": 7.92e-05,
      "inclination_deg": 43.0003,
      "raan_deg": 196.3877,
      "arg_perigee_deg": 245.6528,
      "mean_anomaly_deg": 114.4241,
      "mean_motion_rev_day": 15.27531387
    }
  ]
}